NORAD_CAT_ID,OBJECT_NAME,OBJECT_TYPE,EPOCH,MEAN_MOTION,ECCENTRICITY,INCLINATION,RA_OF_ASC_NODE,ARG_OF_PERICENTER,MEAN_ANOMALY,BSTAR,MEAN_MOTION_DOT,MEAN_MOTION_DDOT,TLE_LINE0,TLE_LINE1,TLE_LINE2,SEMIMAJOR_AXIS,PERIOD,APOGEE,PERIGEE,DECAYED
49168.0,STARLINK-3101,PAYLOAD,2024-06-07 22:22:11,14.98330413,0.0002443,70.0011,87.5001,270.959,89.1289,-0.00016073,-2.01e-05,0.0,0 STARLINK-3101,1 49168U 21082AQ  24159.93208091 -.00002010  00000-0 -16073-3 0  9999,2 49168  70.0011  87.5001 0002443 270.9590  89.1289 14.98330413151847,6950.192,96.107,573.755,570.359,0.0
49168.0,STARLINK-3101,PAYLOAD,2024-06-08 04:46:47,14.98284057,0.000286,70.0004,86.8274,271.7946,88.2885,-0.00055862,-6.744e-05,0.0,0 STARLINK-3101,1 49168U 21082AQ  24160.19916584 -.00006744  00000-0 -55862-3 0  9999,2 49168  70.0004  86.8274 0002860 271.7946  88.2885 14.98284057151888,6950.335,96.11,574.188,570.212,0.0
49168.0,STARLINK-3101,PAYLOAD,2024-06-08 12:47:25,14.98321773,0.0002765,70.0021,85.9868,273.6437,86.4406,-9.9132e-05,-1.275e-05,0.0,0 STARLINK-3101,1 49168U 21082AQ  24160.53293502 -.00001275  00000-0 -99132-4 0  9998,2 49168  70.0021  85.9868 0002765 273.6437  86.4406 14.98321773151938,6950.218,96.108,574.005,570.162,0.0
49168.0,STARLINK-3101,PAYLOAD,2024-06-08 19:11:57,14.98319097,0.0003386,70.0014,85.3112,269.5423,90.5348,-1.0879e-05,-2.23e-06,0.0,0 STARLINK-3101,1 49168U 21082AQ  24160.79997303 -.00000223  00000-0 -10879-4 0  9999,2 49168  70.0014  85.3112 0003386 269.5423  90.5348 14.98319097151976,6950.227,96.108,574.445,569.738,0.0
49168.0,STARLINK-3101,PAYLOAD,2024-06-08 22:24:12,14.98333119,0.0002724,70.0005,84.9756,272.0862,87.9985,0.00014368,1.622e-05,0.0,0 STARLINK-3101,1 49168U 21082AQ  24160.93348282  .00001622  00000-0  14368-3 0  9999,2 49168  70.0005  84.9756 0002724 272.0862  87.9985 14.98333119151996,6950.183,96.107,573.941,570.155,0.0
49168.0,STARLINK-3101,PAYLOAD,2024-06-09 04:48:44,14.98335193,0.0002587,70.0006,84.3004,271.0784,89.0079,0.00018453,2.11e-05,0.0,0 STARLINK-3101,1 49168U 21082AQ  24161.20052076  .00002110  00000-0  18453-3 0  9995,2 49168  70.0006  84.3004 0002587 271.0784  89.0079 14.98335193152033,6950.177,96.107,573.84,570.244,0.0
49168.0,STARLINK-3101,PAYLOAD,2024-06-09 22:26:12,14.98339244,0.0002754,70.0003,82.4493,270.2831,89.8013,0.00033678,3.929e-05,0.0,0 STARLINK-3101,1 49168U 21082AQ  24161.93487163  .00003929  00000-0  33678-3 0  9999,2 49168  70.0003  82.4493 0002754 270.2831  89.8013 14.98339244152140,6950.164,96.106,573.943,570.115,0.0
49168.0,STARLINK-3101,PAYLOAD,2024-06-10 04:50:45,14.98315754,0.0002598,70.0004,81.777,269.4734,90.6127,0.000897,0.00010622,0.0,0 STARLINK-3101,1 49168U 21082AQ  24162.20191175  .00010622  00000-0  89700-3 0  9990,2 49168  70.0004  81.7770 0002598 269.4734  90.6127 14.98315754152189,6950.237,96.108,573.908,570.296,0.0
49168.0,STARLINK-3101,PAYLOAD,2024-06-10 22:28:14,14.98343244,0.0002868,70.0002,79.9256,271.0182,89.0649,-1.9758e-05,-3.29e-06,0.0,0 STARLINK-3101,1 49168U 21082AQ  24162.93627561 -.00000329  00000-0 -19758-4 0  9995,2 49168  70.0002  79.9256 0002868 271.0182  89.0649 14.98343244152299,6950.152,96.106,574.01,570.024,0.0
49168.0,STARLINK-3101,PAYLOAD,2024-06-11 04:52:46,14.98345215,0.0002765,70.0005,79.2539,266.998,93.0863,-2.2632e-05,-3.63e-06,0.0,0 STARLINK-3101,1 49168U 21082AQ  24163.20331159 -.00000363  00000-0 -22632-4 0  9994,2 49168  70.0005  79.2539 0002765 266.9980  93.0863 14.98345215152332,6950.146,96.106,573.933,570.089,0.0
49168.0,STARLINK-3101,PAYLOAD,2024-06-11 11:17:18,14.98358645,0.0002606,70.0012,78.5794,271.3109,88.7752,-0.00037037,-4.512e-05,0.0,0 STARLINK-3101,1 49168U 21082AQ  24163.47034796 -.00004512  00000-0 -37037-3 0  9994,2 49168  70.0012  78.5794 0002606 271.3109  88.7752 14.98358645152375,6950.104,96.105,573.781,570.158,0.0
49168.0,STARLINK-3101,PAYLOAD,2024-06-12 04:54:47,14.98331797,0.0002785,70.0005,76.7274,265.0816,95.0025,-0.00025815,-3.172e-05,0.0,0 STARLINK-3101,1 49168U 21082AQ  24164.20471716 -.00003172  00000-0 -25815-3 0  9995,2 49168  70.0005  76.7274 0002785 265.0816  95.0025 14.98331797152488,6950.187,96.107,573.988,570.117,0.0
49168.0,STARLINK-3101,PAYLOAD,2024-06-12 22:32:16,14.98319372,0.0002859,70.0003,74.8763,266.5801,93.5031,-0.0001444,-1.815e-05,0.0,0 STARLINK-3101,1 49168U 21082AQ  24164.93908368 -.00001815  00000-0 -14440-3 0  9997,2 49168  70.0003  74.8763 0002859 266.5801  93.5031 14.98319372152597,6950.226,96.108,574.078,570.104,0.0
49168.0,STARLINK-3101,PAYLOAD,2024-06-13 03:20:41,14.98315,0.0002849,70.0005,74.3727,263.18,96.9035,-0.0001689,-2.107e-05,0.0,0 STARLINK-3101,1 49168U 21082AQ  24165.13936852 -.00002107  00000-0 -16890-3 0  9995,2 49168  70.0005  74.3727 0002849 263.1800  96.9035 14.98315000152624,6950.239,96.108,574.084,570.124,0.0
49168.0,STARLINK-3101,PAYLOAD,2024-06-13 11:21:21,14.98324986,0.000303,70.0,73.5288,268.6865,91.3947,-0.00014183,-1.785e-05,0.0,0 STARLINK-3101,1 49168U 21082AQ  24165.47316344 -.00001785  00000-0 -14183-3 0  9994,2 49168  70.0000  73.5288 0003030 268.6865  91.3947 14.98324986152675,6950.208,96.107,574.179,569.967,0.0
49168.0,STARLINK-3101,PAYLOAD,2024-06-13 22:34:17,14.98315899,0.0003122,69.9997,72.3516,265.8074,94.2728,0.00016813,1.913e-05,0.0,0 STARLINK-3101,1 49168U 21082AQ  24165.94048408  .00001913  00000-0  16813-3 0  9992,2 49168  69.9997  72.3516 0003122 265.8074  94.2728 14.98315899152741,6950.236,96.108,574.271,569.932,0.0
49168.0,STARLINK-3101,PAYLOAD,2024-06-14 11:23:21,14.98330483,0.0003058,70.0,71.0046,264.7943,95.2867,0.000208,2.39e-05,0.0,0 STARLINK-3101,1 49168U 21082AQ  24166.47455394  .00002390  00000-0  20800-3 0  9998,2 49168  70.0000  71.0046 0003058 264.7943  95.2867 14.98330483152824,6950.191,96.107,574.182,569.931,0.0
49168.0,STARLINK-3101,PAYLOAD,2024-06-14 22:36:17,14.98332655,0.0003064,70.0,69.8263,264.9081,95.1728,0.00029121,3.384e-05,0.0,0 STARLINK-3101,1 49168U 21082AQ  24166.94187030  .00003384  00000-0  29121-3 0  9998,2 49168  70.0000  69.8263 0003064 264.9081  95.1728 14.98332655152897,6950.185,96.107,574.179,569.92,0.0
49168.0,STARLINK-3101,PAYLOAD,2024-06-15 11:25:21,14.98345003,0.0003004,70.0001,68.4796,264.2812,95.8004,0.00030229,3.517e-05,0.0,0 STARLINK-3101,1 49168U 21082AQ  24167.47593983  .00003517  00000-0  30229-3 0  9994,2 49168  70.0001  68.4796 0003004 264.2812  95.8004 14.98345003152977,6950.146,96.106,574.099,569.924,0.0
49168.0,STARLINK-3101,PAYLOAD,2024-06-15 22:38:18,14.98336494,0.0002694,70.0012,67.3031,256.1923,103.8936,7.5503e-05,8.08e-06,0.0,0 STARLINK-3101,1 49168U 21082AQ  24167.94326923  .00000808  00000-0  75503-4 0  9999,2 49168  70.0012  67.3031 0002694 256.1923 103.8936 14.98336494153043,6950.173,96.107,573.91,570.165,0.0
49168.0,STARLINK-3101,PAYLOAD,2024-06-16 03:26:42,14.98336275,0.0002765,70.001,66.799,261.0606,99.024,1.8862e-05,1.32e-06,0.0,0 STARLINK-3101,1 49168U 21082AQ  24168.14355055  .00000132  00000-0  18862-4 0  9995,2 49168  70.0010  66.7990 0002765 261.0606  99.0240 14.98336275153074,6950.173,96.107,573.96,570.117,0.0
49168.0,STARLINK-3101,PAYLOAD,2024-06-16 22:40:19,14.983358,0.0002814,70.0007,64.7777,266.7043,93.3794,-0.00011271,-1.438e-05,0.0,0 STARLINK-3101,1 49168U 21082AQ  24168.94467055 -.00001438  00000-0 -11271-3 0  9995,2 49168  70.0007  64.7777 0002814 266.7043  93.3794 14.98335800153190,6950.175,96.107,573.996,570.084,0.0
49168.0,STARLINK-3101,PAYLOAD,2024-06-17 21:06:12,14.98330382,0.0002767,70.0006,62.4207,268.6493,91.4349,-5.7203e-06,-1.61e-06,0.0,0 STARLINK-3101,1 49168U 21082AQ  24169.87930836 -.00000161  00000-0 -57203-5 0  9999,2 49168  70.0006  62.4207 0002767 268.6493  91.4349 14.98330382153330,6950.192,96.107,573.98,570.134,0.0
49168.0,STARLINK-3101,PAYLOAD,2024-06-17 22:42:20,14.98330498,0.000277,70.0006,62.2523,269.046,91.0382,-4.3981e-06,-1.45e-06,0.0,0 STARLINK-3101,1 49168U 21082AQ  24169.94606824 -.00000145  00000-0 -43981-5 0  9994,2 49168  70.0006  62.2523 0002770 269.0460  91.0382 14.98330498153344,6950.191,96.107,573.982,570.131,0.0
49168.0,STARLINK-3101,PAYLOAD,2024-06-18 01:54:36,14.98330475,0.0002768,70.0006,61.9157,269.0559,91.0283,-3.8208e-06,-1.39e-06,0.0,0 STARLINK-3101,1 49168U 21082AQ  24170.07958823 -.00000139  00000-0 -38208-5 0  9998,2 49168  70.0006  61.9157 0002768 269.0559  91.0283 14.98330475153366,6950.191,96.107,573.98,570.133,0.0
49168.0,STARLINK-3101,PAYLOAD,2024-06-18 22:44:20,14.98333397,0.0002837,70.0006,59.7272,268.5973,91.4861,7.3437e-05,7.83e-06,0.0,0 STARLINK-3101,1 49168U 21082AQ  24170.94746306  .00000783  00000-0  73437-4 0  9990,2 49168  70.0006  59.7272 0002837 268.5973  91.4861 14.98333397153496,6950.182,96.107,574.019,570.076,0.0
49168.0,STARLINK-3101,PAYLOAD,2024-06-19 00:20:28,14.98332912,0.0002836,70.0006,59.5589,268.3728,91.7106,6.6992e-05,7.07e-06,0.0,0 STARLINK-3101,1 49168U 21082AQ  24171.01422340  .00000707  00000-0  66992-4 0  9992,2 49168  70.0006  59.5589 0002836 268.3728  91.7106 14.98332912153509,6950.184,96.107,574.02,570.078,0.0
49168.0,STARLINK-3101,PAYLOAD,2024-06-19 09:57:17,14.98328286,0.0002837,70.0005,58.5489,268.5542,91.5292,3.2517e-06,-5.4e-07,0.0,0 STARLINK-3101,1 49168U 21082AQ  24171.41478777 -.00000054  00000-0  32517-5 0  9994,2 49168  70.0005  58.5489 0002837 268.5542  91.5292 14.98328286153562,6950.198,96.107,574.035,570.091,0.0
49168.0,STARLINK-3101,PAYLOAD,2024-06-19 19:34:06,14.98325264,0.0002907,70.0003,57.5391,269.3244,90.7582,-8.3433e-06,-1.93e-06,0.0,0 STARLINK-3101,1 49168U 21082AQ  24171.81535047 -.00000193  00000-0 -83433-5 0  9990,2 49168  70.0003  57.5391 0002907 269.3244  90.7582 14.98325264153620,6950.208,96.107,574.093,570.052,0.0
49168.0,STARLINK-3101,PAYLOAD,2024-06-19 22:46:22,14.9831608,0.0003269,70.0,57.203,269.2835,90.7949,-7.6967e-06,-1.85e-06,0.0,0 STARLINK-3101,1 49168U 21082AQ  24171.94887621 -.00000185  00000-0 -76967-5 0  9997,2 49168  70.0000  57.2030 0003269 269.2835  90.7949 14.98316080153646,6950.236,96.108,574.373,569.829,0.0
